LEMUR-2-STAR-FOX        
1 62696U 25009CR  26155.17208355  .00009396  00000+0  71552-3 0  9994
2 62696  97.6940 236.8765 0002464 148.1921 211.9453 15.02293769 75602
LEMUR-2-ARIANNA         
1 62699U 25009CU  26155.17025802  .00010341  00000+0  78729-3 0  9996
2 62699  97.6880 236.6595 0002780 156.9778 203.1572 15.02275535 75601
LEMUR-2-ALISIA          
1 62706U 25009DB  26155.21726988  .00009415  00000+0  71176-3 0  9992
2 62706  97.6973 237.4752 0000484 195.6925 164.4285 15.02572183 98211
LEMUR-2-ROUNDTRIPPER    
1 62711U 25009DG  26155.18402124  .00010258  00000+0  75496-3 0  9993
2 62711  97.7228 237.8844 0004107 173.7535 186.3743 15.03559606 75670
LEMUR-2-MYNAMEISJEFF    
1 62712U 25009DH  26155.44873915  .00010819  00000+0  79556-3 0  9997
2 62712  97.7280 238.5214 0002432 203.8502 156.2611 15.03581129 75716
LEMUR-2-LEIA-PHILIP     
1 63246U 25052AN  26155.23863391  .00002170  00000+0  19224-3 0  9999
2 63246  97.6838  47.4066 0002193 270.2468  89.8503 14.97273900 66732
LEMUR-2-LIA-MARTIN      
1 63248U 25052AQ  26155.91569589  .00006490  00000+0  55879-3 0  9993
2 63248  97.6899  48.5290 0002029 186.5979 173.5217 14.97690281 66846
LEMUR-2-DELOITTE-1      
1 63259U 25052BB  26155.69000562  .00004461  00000+0  38755-3 0  9991
2 63259  97.6922  48.6365 0002117 118.0645 242.0792 14.97506873 66828
LEMUR-2-EMERSONROSE     
1 63261U 25052BD  26155.67753272  .00003995  00000+0  33451-3 0  9994
2 63261  97.6915  49.1587 0002866  79.0066 281.1480 14.98995914 66860
LEMUR-2-MARACHE-FRAN    
1 63262U 25052BE  26155.92802147  .00007509  00000+0  60859-3 0  9996
2 63262  97.6940  49.6956 0006403  61.2484 298.9382 14.99963161 66926
LEMUR-2-THEFALCONER     
1 63264U 25052BG  26155.64783900  .00005219  00000+0  45492-3 0  9994
2 63264  97.6871  48.2275 0003586  67.2356 292.9244 14.97297056 66813
LEMUR-2-UNTITLED-SC     
1 63351U 25061A   26155.85708478  .00004265  00000+0  24193-3 0  9996
2 63351  97.5635 131.3103 0017365 311.5939  48.3803 15.13385500 65727
LEMUR-2-ESPERANZA       
1 63352U 25061B   26154.44656555  .00003752  00000+0  21282-3 0  9995
2 63352  97.5640 130.0007 0017038 316.2764  43.7116 15.13467094 65510
LEMUR-2-KREMPEL-BRO2    
1 63353U 25061C   26155.73331284  .00004712  00000+0  26296-3 0  9995
2 63353  97.5689 131.7954 0017715 303.1121  56.8409 15.13910230 65725
LEMUR-2-THERMORAPTOR    
1 63354U 25061D   26154.98900498  .00004355  00000+0  24289-3 0  9994
2 63354  97.5694 131.1285 0017367 304.9847  54.9753 15.13981450 65611
LEMUR-2-NEUROSPICY      
1 63355U 25061E   26155.75473007  .00004990  00000+0  27702-3 0  9990
2 63355  97.5618 131.5256 0015230 306.2312  53.7511 15.14101189 65735
LEMUR-2-TILLINFINITY    
1 63356U 25061F   26155.72873500  .00004592  00000+0  25098-3 0  9994
2 63356  97.5605 131.7817 0016276 293.0371  66.9144 15.14689557 65756
LEMUR-2-KREMPEL-BRO1    
1 63357U 25061G   26155.17204064  .00004255  00000+0  23409-3 0  9997
2 63357  97.5605 131.1482 0017033 296.4114  63.5370 15.14489279 65666
LEMUR-2-LANGER2SPACE    
1 63358U 25061H   26155.72461939  .00004365  00000+0  24222-3 0  9991
2 63358  97.5614 131.5162 0015186 304.7826  55.1975 15.14192718 65731
LEMUR-2-BALTO           
1 63395U 25052BH  26155.64571296  .00006668  00000+0  54130-3 0  9990
2 63395  97.6878  49.4042 0006321  89.4139 270.7809 14.99945620 66882
LEMUR-2-KRISH           
1 64561U 25135AK  26155.90223686  .00005638  00000+0  50652-3 0  9995
2 64561  97.7731 270.8661 0001160  99.3361 260.7991 14.96087490 52084
LEMUR-2-HUBBLE-4        
1 64565U 25135AP  26155.87308115  .00002453  00000+0  24045-3 0  9995
2 64565  97.7690 269.9300 0001916  13.3133 346.8136 14.93163815 52038
LEMUR-2-SEJONG-2        
1 64586U 25135BL  26155.93633977  .00006375  00000+0  56461-3 0  9996
2 64586  97.7682 271.0428 0004775  30.0170 330.1325 14.96595366 52118
LEMUR-2-HUBBLE-5        
1 64840U 25135BT  26155.63395304  .00001555  00000+0  15086-3 0  9998
2 64840  97.7708 270.3068 0006114  33.7380 326.4228 14.94095803 52034
LEMUR-2-KARENDARRELL    
1 64841U 25135BU  26155.57719667  .00008912  00000+0  72190-3 0  9997
2 64841  97.7677 271.8096 0008842 251.4647 108.5616 14.99921032 52129
LEMUR-2-LUCILLE-ROSE    
1 65403U 25135BV  26155.55138543  .00008332  00000+0  67403-3 0  9995
2 65403  97.7773 271.7861 0010646 332.2747  27.7907 14.99981500 46746
LEMUR-2-AFFIE-WAUWIE    
1 66295U 25248C   26152.48471986  .00015776  00000+0  59909-3 0  9992
2 66295  45.3867 200.0340 0009699 347.2049  12.8593 15.26700156 32190
LEMUR-2-DEANANDMAEVE    
1 66678U 25276N   26155.73803315  .00008107  00000+0  38391-3 0  9996
2 66678  97.4216 229.4227 0006781  53.1081 307.0774 15.19573072 28527
LEMUR-2-STAS-GORBUK     
1 66686U 25276W   26155.68387977  .00007173  00000+0  34337-3 0  9998
2 66686  97.4245 229.4241 0006281  53.7247 306.4567 15.19241574 28510
